ONEWEB-0629             
1 55170U 23004AG  25347.22175190  .00000071  00000+0  15042-3 0  9997
2 55170  87.9110  42.8552 0002027 105.5790 254.5565 13.17649045143099
ONEWEB-0631             
1 55171U 23004AH  25347.12783385  .00000024  00000+0  27038-4 0  9995
2 55171  87.9184  12.3852 0001238  87.6288 272.4986 13.18686426145151
ONEWEB-0709             
1 55172U 23004AJ  25347.19279967  .00000329  00000+0  89107-3 0  9991
2 55172  87.8853  58.1245 0001347  72.4020 287.7255 13.11418204141496
ONEWEB-0710             
1 55173U 23004AK  25347.16016174 -.00000046  00000+0 -15147-3 0  9999
2 55173  87.9113  42.8619 0001691 105.8799 254.2519 13.17647975143082
ONEWEB-0711             
1 55174U 23004AL  25347.24029830 -.00000382  00000+0 -11151-2 0  9995
2 55174  87.8868  58.0890 0001619 131.9461 228.1806 13.11413478141467
ONEWEB-0713             
1 55175U 23004AM  25347.25894124  .00000403  00000+0  11002-2 0  9990
2 55175  87.8861  58.0874 0001584 118.0882 242.0406 13.11417653141456
ONEWEB-0715             
1 55176U 23004AN  25347.25383819  .00000079  00000+0  18720-3 0  9999
2 55176  87.8863  58.0891 0001051  89.7070 270.4178 13.11419804141495
ONEWEB-0716             
1 55177U 23004AP  25347.22935320  .00000128  00000+0  29581-3 0  9999
2 55177  87.9110  42.8479 0001940  96.7911 263.3441 13.17649136143095
ONEWEB-0717             
1 55178U 23004AQ  25347.21246896 -.00000429  00000+0 -11379-2 0  9993
2 55178  87.9111  42.8222 0001697 116.4150 243.7155 13.17659533143149
ONEWEB-0719             
1 55179U 23004AR  25347.22259777 -.00000016  00000+0 -73750-4 0  9992
2 55179  87.9120  42.8026 0001997 101.4852 258.6504 13.17648130143096
ONEWEB-0530             
1 55796U 23029A   25346.95600581 -.00000086  00000+0 -24429-3 0  9991
2 55796  87.9198 311.6239 0001704  99.1555 260.9771 13.20769052136565
ONEWEB-0534             
1 55797U 23029B   25346.94338304 -.00000162  00000+0 -43045-3 0  9992
2 55797  87.9192 311.6268 0001933  82.4414 277.6939 13.20769235136569
ONEWEB-0556             
1 55798U 23029C   25347.17698283 -.00000050  00000+0 -15574-3 0  9996
2 55798  87.9200 311.5802 0002669  93.2180 266.9259 13.20771553136595
ONEWEB-0562             
1 55799U 23029D   25347.16436272 -.00000051  00000+0 -15630-3 0  9998
2 55799  87.9193 311.5654 0002064 107.8547 252.2812 13.20770276136594
ONEWEB-0563             
1 55800U 23029E   25347.30954248  .00000185  00000+0  42376-3 0  9998
2 55800  87.9201 311.5639 0002072  80.8395 279.2973 13.20769755136609
ONEWEB-0564             
1 55801U 23029F   25347.30323465  .00000153  00000+0  34320-3 0  9995
2 55801  87.9193 311.5408 0001805  94.6836 265.4503 13.20770416136613
