[{"OBJECT_NAME":"ONEWEB-0629","OBJECT_ID":"2023-004AG","EPOCH":"2025-12-13T05:19:19.364160","MEAN_MOTION":13.17649045,"ECCENTRICITY":0.00020272,"INCLINATION":87.911,"RA_OF_ASC_NODE":42.8552,"ARG_OF_PERICENTER":105.579,"MEAN_ANOMALY":254.5565,"EPHEMERIS_TYPE":0,"CLASSIFICATION_TYPE":"U","NORAD_CAT_ID":55170,"ELEMENT_SET_NO":999,"REV_AT_EPOCH":14309,"BSTAR":0.00015041674,"MEAN_MOTION_DOT":7.1e-7,"MEAN_MOTION_DDOT":0},{"OBJECT_NAME":"ONEWEB-0631","OBJECT_ID":"2023-004AH","EPOCH":"2025-12-13T03:04:04.844640","MEAN_MOTION":13.18686426,"ECCENTRICITY":0.00012383,"INCLINATION":87.9184,"RA_OF_ASC_NODE":12.3852,"ARG_OF_PERICENTER":87.6288,"MEAN_ANOMALY":272.4986,"EPHEMERIS_TYPE":0,"CLASSIFICATION_TYPE":"U","NORAD_CAT_ID":55171,"ELEMENT_SET_NO":999,"REV_AT_EPOCH":14515,"BSTAR":2.7038282e-5,"MEAN_MOTION_DOT":2.4e-7,"MEAN_MOTION_DDOT":0},{"OBJECT_NAME":"ONEWEB-0709","OBJECT_ID":"2023-004AJ","EPOCH":"2025-12-13T04:37:37.891488","MEAN_MOTION":13.11418204,"ECCENTRICITY":0.00013474,"INCLINATION":87.8853,"RA_OF_ASC_NODE":58.1245,"ARG_OF_PERICENTER":72.402,"MEAN_ANOMALY":287.7255,"EPHEMERIS_TYPE":0,"CLASSIFICATION_TYPE":"U","NORAD_CAT_ID":55172,"ELEMENT_SET_NO":999,"REV_AT_EPOCH":14149,"BSTAR":0.00089107317,"MEAN_MOTION_DOT":3.29e-6,"MEAN_MOTION_DDOT":0},{"OBJECT_NAME":"ONEWEB-0710","OBJECT_ID":"2023-004AK","EPOCH":"2025-12-13T03:50:37.974336","MEAN_MOTION":13.17647975,"ECCENTRICITY":0.00016914,"INCLINATION":87.9113,"RA_OF_ASC_NODE":42.8619,"ARG_OF_PERICENTER":105.8799,"MEAN_ANOMALY":254.2519,"EPHEMERIS_TYPE":0,"CLASSIFICATION_TYPE":"U","NORAD_CAT_ID":55173,"ELEMENT_SET_NO":999,"REV_AT_EPOCH":14308,"BSTAR":-0.00015147366,"MEAN_MOTION_DOT":-4.6e-7,"MEAN_MOTION_DDOT":0},{"OBJECT_NAME":"ONEWEB-0711","OBJECT_ID":"2023-004AL","EPOCH":"2025-12-13T05:46:01.773120","MEAN_MOTION":13.11413478,"ECCENTRICITY":0.00016197,"INCLINATION":87.8868,"RA_OF_ASC_NODE":58.089,"ARG_OF_PERICENTER":131.9461,"MEAN_ANOMALY":228.1806,"EPHEMERIS_TYPE":0,"CLASSIFICATION_TYPE":"U","NORAD_CAT_ID":55174,"ELEMENT_SET_NO":999,"REV_AT_EPOCH":14146,"BSTAR":-0.0011151335,"MEAN_MOTION_DOT":-3.82e-6,"MEAN_MOTION_DDOT":0},{"OBJECT_NAME":"ONEWEB-0713","OBJECT_ID":"2023-004AM","EPOCH":"2025-12-13T06:12:52.523136","MEAN_MOTION":13.11417653,"ECCENTRICITY":0.0001584,"INCLINATION":87.8861,"RA_OF_ASC_NODE":58.0874,"ARG_OF_PERICENTER":118.0882,"MEAN_ANOMALY":242.0406,"EPHEMERIS_TYPE":0,"CLASSIFICATION_TYPE":"U","NORAD_CAT_ID":55175,"ELEMENT_SET_NO":999,"REV_AT_EPOCH":14145,"BSTAR":0.0011001856,"MEAN_MOTION_DOT":4.03e-6,"MEAN_MOTION_DDOT":0},{"OBJECT_NAME":"ONEWEB-0715","OBJECT_ID":"2023-004AN","EPOCH":"2025-12-13T06:05:31.619616","MEAN_MOTION":13.11419804,"ECCENTRICITY":0.00010514,"INCLINATION":87.8863,"RA_OF_ASC_NODE":58.0891,"ARG_OF_PERICENTER":89.707,"MEAN_ANOMALY":270.4178,"EPHEMERIS_TYPE":0,"CLASSIFICATION_TYPE":"U","NORAD_CAT_ID":55176,"ELEMENT_SET_NO":999,"REV_AT_EPOCH":14149,"BSTAR":0.00018720451,"MEAN_MOTION_DOT":7.9e-7,"MEAN_MOTION_DDOT":0},{"OBJECT_NAME":"ONEWEB-0716","OBJECT_ID":"2023-004AP","EPOCH":"2025-12-13T05:30:16.116480","MEAN_MOTION":13.17649136,"ECCENTRICITY":0.00019405,"INCLINATION":87.911,"RA_OF_ASC_NODE":42.8479,"ARG_OF_PERICENTER":96.7911,"MEAN_ANOMALY":263.3441,"EPHEMERIS_TYPE":0,"CLASSIFICATION_TYPE":"U","NORAD_CAT_ID":55177,"ELEMENT_SET_NO":999,"REV_AT_EPOCH":14309,"BSTAR":0.00029580992,"MEAN_MOTION_DOT":1.28e-6,"MEAN_MOTION_DDOT":0},{"OBJECT_NAME":"ONEWEB-0717","OBJECT_ID":"2023-004AQ","EPOCH":"2025-12-13T05:05:57.318144","MEAN_MOTION":13.17659533,"ECCENTRICITY":0.00016971,"INCLINATION":87.9111,"RA_OF_ASC_NODE":42.8222,"ARG_OF_PERICENTER":116.415,"MEAN_ANOMALY":243.7155,"EPHEMERIS_TYPE":0,"CLASSIFICATION_TYPE":"U","NORAD_CAT_ID":55178,"ELEMENT_SET_NO":999,"REV_AT_EPOCH":14314,"BSTAR":-0.0011378748,"MEAN_MOTION_DOT":-4.29e-6,"MEAN_MOTION_DDOT":0},{"OBJECT_NAME":"ONEWEB-0719","OBJECT_ID":"2023-004AR","EPOCH":"2025-12-13T05:20:32.447328","MEAN_MOTION":13.1764813,"ECCENTRICITY":0.00019976,"INCLINATION":87.912,"RA_OF_ASC_NODE":42.8026,"ARG_OF_PERICENTER":101.4852,"MEAN_ANOMALY":258.6504,"EPHEMERIS_TYPE":0,"CLASSIFICATION_TYPE":"U","NORAD_CAT_ID":55179,"ELEMENT_SET_NO":999,"REV_AT_EPOCH":14309,"BSTAR":-7.3750153e-5,"MEAN_MOTION_DOT":-1.6e-7,"MEAN_MOTION_DDOT":0},{"OBJECT_NAME":"ONEWEB-0530","OBJECT_ID":"2023-029A","EPOCH":"2025-12-12T22:56:38.901984","MEAN_MOTION":13.20769052,"ECCENTRICITY":0.00017049,"INCLINATION":87.9198,"RA_OF_ASC_NODE":311.6239,"ARG_OF_PERICENTER":99.1555,"MEAN_ANOMALY":260.9771,"EPHEMERIS_TYPE":0,"CLASSIFICATION_TYPE":"U","NORAD_CAT_ID":55796,"ELEMENT_SET_NO":999,"REV_AT_EPOCH":13656,"BSTAR":-0.00024429463,"MEAN_MOTION_DOT":-8.6e-7,"MEAN_MOTION_DDOT":0},{"OBJECT_NAME":"ONEWEB-0534","OBJECT_ID":"2023-029B","EPOCH":"2025-12-12T22:38:28.294656","MEAN_MOTION":13.20769235,"ECCENTRICITY":0.00019337,"INCLINATION":87.9192,"RA_OF_ASC_NODE":311.6268,"ARG_OF_PERICENTER":82.4414,"MEAN_ANOMALY":277.6939,"EPHEMERIS_TYPE":0,"CLASSIFICATION_TYPE":"U","NORAD_CAT_ID":55797,"ELEMENT_SET_NO":999,"REV_AT_EPOCH":13656,"BSTAR":-0.00043045058,"MEAN_MOTION_DOT":-1.62e-6,"MEAN_MOTION_DDOT":0},{"OBJECT_NAME":"ONEWEB-0556","OBJECT_ID":"2023-029C","EPOCH":"2025-12-13T04:14:51.316512","MEAN_MOTION":13.20771553,"ECCENTRICITY":0.00026694,"INCLINATION":87.92,"RA_OF_ASC_NODE":311.5802,"ARG_OF_PERICENTER":93.218,"MEAN_ANOMALY":266.9259,"EPHEMERIS_TYPE":0,"CLASSIFICATION_TYPE":"U","NORAD_CAT_ID":55798,"ELEMENT_SET_NO":999,"REV_AT_EPOCH":13659,"BSTAR":-0.00015574415,"MEAN_MOTION_DOT":-5.0e-7,"MEAN_MOTION_DDOT":0},{"OBJECT_NAME":"ONEWEB-0562","OBJECT_ID":"2023-029D","EPOCH":"2025-12-13T03:56:40.939008","MEAN_MOTION":13.20770276,"ECCENTRICITY":0.00020644,"INCLINATION":87.9193,"RA_OF_ASC_NODE":311.5654,"ARG_OF_PERICENTER":107.8547,"MEAN_ANOMALY":252.2812,"EPHEMERIS_TYPE":0,"CLASSIFICATION_TYPE":"U","NORAD_CAT_ID":55799,"ELEMENT_SET_NO":999,"REV_AT_EPOCH":13659,"BSTAR":-0.00015630081,"MEAN_MOTION_DOT":-5.1e-7,"MEAN_MOTION_DDOT":0},{"OBJECT_NAME":"ONEWEB-0563","OBJECT_ID":"2023-029E","EPOCH":"2025-12-13T07:25:44.470272","MEAN_MOTION":13.20769755,"ECCENTRICITY":0.00020724,"INCLINATION":87.9201,"RA_OF_ASC_NODE":311.5639,"ARG_OF_PERICENTER":80.8395,"MEAN_ANOMALY":279.2973,"EPHEMERIS_TYPE":0,"CLASSIFICATION_TYPE":"U","NORAD_CAT_ID":55800,"ELEMENT_SET_NO":999,"REV_AT_EPOCH":13660,"BSTAR":0.00042375586,"MEAN_MOTION_DOT":1.85e-6,"MEAN_MOTION_DDOT":0},{"OBJECT_NAME":"ONEWEB-0564","OBJECT_ID":"2023-029F","EPOCH":"2025-12-13T07:16:39.473760","MEAN_MOTION":13.20770416,"ECCENTRICITY":0.00018052,"INCLINATION":87.9193,"RA_OF_ASC_NODE":311.5408,"ARG_OF_PERICENTER":94.6836,"MEAN_ANOMALY":265.4503,"EPHEMERIS_TYPE":0,"CLASSIFICATION_TYPE":"U","NORAD_CAT_ID":55801,"ELEMENT_SET_NO":999,"REV_AT_EPOCH":13661,"BSTAR":0.00034320008,"MEAN_MOTION_DOT":1.53e-6,"MEAN_MOTION_DDOT":0}]
